     3.04           N: GNSS NAV DATA    M: MIXED            RINEX VERSION / TYPE
ssrcrin-15.6.1x                         20250101 024500 UTC PGM / RUN BY / DATE 
    18                                                      LEAP SECONDS        
                                                            END OF HEADER       
S23 2025 01 01 02 56 16 0.000000000000E+00 0.000000000000E+00 2.697770000000E+05
     3.866796400000E+04 0.000000000000E+00 0.000000000000E+00 6.300000000000E+01
     1.681330800000E+04 0.000000000000E+00 0.000000000000E+00 3.276700000000E+04
     0.000000000000E+00 0.000000000000E+00 0.000000000000E+00 7.000000000000E+01
E15 2025 01 01 02 40 00-1.483820378780E-04-2.245315045002E-12 0.000000000000E+00
     6.700000000000E+01 1.498437500000E+02 2.773329806033E-09 2.024928214548E+00
     7.076188921928E-06 4.386234795675E-04-6.388872861862E-07 5.440608598709E+03
     2.688000000000E+05 8.381903171539E-08-1.775736331803E+00 7.450580596924E-09
     9.996229056893E-01 3.715625000000E+02-1.182519690337E+00-5.721666901821E-09
     2.478674675321E-10 5.170000000000E+02 2.347000000000E+03
     3.120000000000E+00 0.000000000000E+00 2.793967723846E-09 3.725290298462E-09
     2.697850000000E+05
S44 2025 01 01 02 56 00 8.409842848778E-07 0.000000000000E+00 2.697920000000E+05
     7.335922240000E+03 1.147500000000E-03-1.625000000000E-07 6.300000000000E+01
     4.150941736000E+04-2.151250000000E-03-1.625000000000E-07 3.276700000000E+04
    -2.915832000000E+02-1.388160000000E-01 7.500000000000E-07 6.000000000000E+01
S36 2025 01 01 02 56 32 0.000000000000E+00 0.000000000000E+00 2.697940000000E+05
     4.200368800000E+04 0.000000000000E+00 0.000000000000E+00 6.300000000000E+01
     3.674846960000E+03 0.000000000000E+00 0.000000000000E+00 3.276700000000E+04
     0.000000000000E+00 0.000000000000E+00 0.000000000000E+00 2.220000000000E+02
E15 2025 01 01 02 40 00-1.483833766542E-04-2.245315045002E-12 0.000000000000E+00
     6.700000000000E+01 1.498437500000E+02 2.773329806033E-09 2.024928214548E+00
     7.076188921928E-06 4.386234795675E-04-6.388872861862E-07 5.440608598709E+03
     2.688000000000E+05 8.381903171539E-08-1.775736331803E+00 7.450580596924E-09
     9.996229056893E-01 3.715625000000E+02-1.182519690337E+00-5.721666901821E-09
     2.478674675321E-10 2.580000000000E+02 2.347000000000E+03
     3.120000000000E+00 0.000000000000E+00 2.793967723846E-09 0.000000000000E+00
     2.698200000000E+05
S21 2025 01 01 02 57 20 0.000000000000E+00 0.000000000000E+00 2.698540000000E+05
     4.200468400000E+04 0.000000000000E+00 0.000000000000E+00 6.300000000000E+01
    -3.674932960000E+03 0.000000000000E+00 0.000000000000E+00 3.276700000000E+04
     0.000000000000E+00 0.000000000000E+00 0.000000000000E+00 1.690000000000E+02
S23 2025 01 01 02 58 08 0.000000000000E+00 0.000000000000E+00 2.699020000000E+05
     3.866796400000E+04 0.000000000000E+00 0.000000000000E+00 6.300000000000E+01
     1.681330800000E+04 0.000000000000E+00 0.000000000000E+00 3.276700000000E+04
     0.000000000000E+00 0.000000000000E+00 0.000000000000E+00 7.100000000000E+01
S44 2025 01 01 02 58 08 8.409842848778E-07 0.000000000000E+00 2.699120000000E+05
     7.336066320000E+03 1.102500000000E-03-1.750000000000E-07 6.300000000000E+01
     4.150913912000E+04-2.195000000000E-03-1.625000000000E-07 3.276700000000E+04
    -3.093388000000E+02-1.386120000000E-01 7.500000000000E-07 6.000000000000E+01
S36 2025 01 01 02 58 56 0.000000000000E+00 0.000000000000E+00 2.699460000000E+05
     4.200368800000E+04 0.000000000000E+00 0.000000000000E+00 6.300000000000E+01
     3.674846960000E+03 0.000000000000E+00 0.000000000000E+00 3.276700000000E+04
     0.000000000000E+00 0.000000000000E+00 0.000000000000E+00 2.230000000000E+02
E04 2025 01 01 02 40 00-1.210927148350E-04-9.535483513901E-12 0.000000000000E+00
     6.700000000000E+01-1.740000000000E+02 2.569392739807E-09-2.676442371151E+00
    -8.100643754005E-06 1.052560983226E-04 1.225620508194E-05 5.440618635178E+03
     2.688000000000E+05 2.980232238770E-08 3.135264789735E-01-1.117587089539E-08
     9.636166252660E-01 8.225000000000E+01-1.739801772402E+00-5.133428113600E-09
     2.510818871398E-10 5.170000000000E+02 2.347000000000E+03
     3.120000000000E+00 0.000000000000E+00-6.286427378654E-09-6.053596735001E-09
     2.699750000000E+05
S27 2025 01 01 03 00 16 1.676380634308E-08 2.728484105319E-11 2.699900000000E+05
     2.418873664000E+04-2.574375000000E-03-2.250000000000E-07 3.100000000000E+01
     3.452161240000E+04-9.381250000000E-04 2.500000000000E-07 4.096000000000E+03
     5.119340000000E+02-1.668800000000E-02-2.687500000000E-06 4.000000000000E+01
S28 2025 01 01 03 00 16 1.117587089539E-08 2.273736754432E-11 2.699900000000E+05
     5.130688400000E+03-2.202500000000E-03-1.250000000000E-07 3.100000000000E+01
     4.183784600000E+04-6.250000000000E-04 1.125000000000E-07 4.096000000000E+03
    -2.454360000000E+01 4.320000000000E-04 1.250000000000E-07 4.000000000000E+01
